ANSER LEADER-S          
1 62644U 25009AM  26068.72679758  .00029611  00000+0  79384-3 0  9993
2 62644  97.4062 153.8270 0001434 298.2423  61.8677 15.37938842 63879
FLOCK 4G-22             
1 62645U 25009AN  26069.47671958  .00013618  00000+0  51275-3 0  9990
2 62645  97.4045 152.1087 0000911 279.2289  80.8847 15.27224265 63840
FLOCK 4G-25             
1 62646U 25009AP  26069.46635133  .00011318  00000+0  42394-3 0  9992
2 62646  97.4047 152.1299 0000837 316.1846  43.9327 15.27441207 63845
FLOCK 4G-23             
1 62647U 25009AQ  26069.17526187  .00015146  00000+0  56889-3 0  9996
2 62647  97.3980 151.4026 0000873   4.8190 355.3058 15.27279841 63792
LIME                    
1 62648U 25009AR  26069.19726423  .00015126  00000+0  54385-3 0  9991
2 62648  97.3984 151.9387 0001601  35.2617 324.8729 15.28719807 63837
AE1C                    
1 62649U 25009AS  26069.46514076  .00041373  00000+0  10397-2 0  9998
2 62649  97.4054 155.4731 0000742 249.1722 110.9444 15.39855610 64066
FLOCK 4G-34             
1 62650U 25009AT  26069.45278732  .00014423  00000+0  54401-3 0  9996
2 62650  97.4001 151.7297 0000609 337.9973  22.1240 15.27153146 63836
FLOCK 4G-21             
1 62651U 25009AU  26069.17693085  .00014248  00000+0  51739-3 0  9994
2 62651  97.4030 152.1037 0000423 316.8440  43.2767 15.28408868 63827
FLOCK 4G-31             
1 62652U 25009AV  26069.46788276  .00014348  00000+0  54394-3 0  9995
2 62652  97.4005 151.7418 0000564  36.4531 323.6746 15.26985436 63832
PAUSAT-1                
1 62653U 25009AW  26069.50563631  .00005929  00000+0  25700-3 0  9991
2 62653  97.3998 150.5993 0000923  24.9486 335.1795 15.22746894 63761
BRO-16                  
1 62654U 25009AX  26069.49391367  .00006834  00000+0  29318-3 0  9990
2 62654  97.4094 151.2443 0000529 336.0416  24.0796 15.23044431 63775
TRANSPORTER-12 OBJECT AY
1 62655U 25009AY  26068.21886106  .00029789  00000+0  83879-3 0  9996
2 62655  97.4067 153.6184 0000836 214.0220 146.0970 15.36411450 63821
TRANSPORTER-12 OBJECT AZ
1 62656U 25009AZ  26069.16796593  .00017083  00000+0  58354-3 0  9996
2 62656  97.3981 152.4473 0000954  42.4382 317.6932 15.30367597 63861
TRANSPORTER-12 OBJECT BA
1 62657U 25009BA  26069.15983031  .00012903  00000+0  48594-3 0  9992
2 62657  97.3986 151.5939 0000422 229.5261 130.5941 15.27228334 63805
TROLL                   
1 62658U 25009BB  26069.46933722  .00013540  00000+0  49497-3 0  9990
2 62658  97.3928 151.9515 0001737  56.7697 303.3708 15.28198920118360
FLOCK 4G-4              
1 62659U 25009BC  26069.21210359  .00013402  00000+0  51089-3 0  9995
2 62659  97.3994 151.2512 0001559 341.8335  18.2848 15.26818197121390
FLOCK 4G-6              
1 62660U 25009BD  26069.16919004  .00015148  00000+0  56604-3 0  9991
2 62660  97.3983 151.2493 0002365 345.5599  14.5572 15.27449373121375
FLOCK 4G-2              
1 62661U 25009BE  26069.12057930  .00014941  00000+0  55425-3 0  9999
2 62661  97.4043 151.6776 0003154 326.9658  33.1384 15.27691073121394
FLOCK 4G-5              
1 62663U 25009BG  26069.17641852  .00012976  00000+0  46737-3 0  9990
2 62663  97.4059 151.9642 0002078 310.6047  49.5012 15.28699147 63805
LYRA-1                  
1 62664U 25009BH  26069.12232277  .00011811  00000+0  60099-3 0  9997
2 62664  97.4044 145.8892 0009857 170.6097 189.5322 15.16932882 63396
JAY-D2                  
1 62665U 25009BJ  26069.50019021  .00005352  00000+0  23995-3 0  9997
2 62665  97.3936 149.6949 0003088 339.7734  20.3379 15.21633083 63725
FLOCK 4G-1              
1 62666U 25009BK  26069.48013596  .00015439  00000+0  57688-3 0  9999
2 62666  97.4059 152.0317 0003162 319.5830  40.5174 15.27445461 63832
FLOCK 4G-14             
1 62667U 25009BL  26069.15182416  .00012933  00000+0  48728-3 0  9993
2 62667  97.4063 151.5740 0002988 316.6170  43.4834 15.27209936 63775
JAY-C                   
1 62668U 25009BM  26069.50117891  .00005208  00000+0  23365-3 0  9995
2 62668  97.4006 150.0401 0003656 345.4099  14.7031 15.21622701121367
JAY-D1                  
1 62669U 25009BN  26069.50045565  .00005366  00000+0  24062-3 0  9994
2 62669  97.4075 150.3880 0004364 346.8935  13.2187 15.21626955121360
FLOCK 4G-10             
1 62670U 25009BP  26069.49455149  .00014934  00000+0  56258-3 0  9990
2 62670  97.3968 151.3679 0003417 338.4157  21.6937 15.27180711121468
SKYBEE-A01              
1 62671U 25009BQ  26069.51838960  .00003656  00000+0  17054-3 0  9990
2 62671  97.4034 149.8642 0004373 335.2833  24.8192 15.20474584121346
TRANSPORTER-12 OBJECT BR
1 62672U 25009BR  26069.12062241  .00005782  00000+0  25557-3 0  9998
2 62672  97.4000 149.7668 0003840 340.6314  19.4776 15.22085305121315
LEO EXPRESS 2           
1 62673U 25009BS  26069.47626107  .00006674  00000+0  31902-3 0  9996
2 62673  96.6293 150.6691 0025460 117.4005 242.9826 15.18989940121544
TRANSPORTER-12 OBJECT BT
1 62674U 25009BT  26069.17261535  .00015751  00000+0  58059-3 0  9992
2 62674  97.4098 152.0551 0003648 311.3932  48.6994 15.27888757121435
FLOCK 4G-36             
1 62675U 25009BU  26069.49350748  .00015507  00000+0  58306-3 0  9997
2 62675  97.4054 151.8318 0003418 320.8162  39.2829 15.27235948 63820
FOSSASAT-2E19 (TAT-E)   
1 62676U 25009BV  26069.22148594  .00004125  00000+0  19138-3 0  9997
2 62676  97.4004 149.2867 0004395 342.0670  18.0410 15.20584778 63654
ELEVATION-1             
1 62677U 25009BW  26068.73256217  .00027253  00000+0  76188-3 0  9990
2 62677  97.3895 153.1078 0003155 317.9798  42.1204 15.36649756121520
FLOCK 4G-15             
1 62678U 25009BX  26069.17642572  .00014876  00000+0  55871-3 0  9996
2 62678  97.4055 151.6480 0003692 314.5485  45.5452 15.27282595121427
FLOCK 4G-30             
1 62679U 25009BY  26068.70871345  .00013147  00000+0  49475-3 0  9990
2 62679  97.3969 150.6012 0003794 342.4152  17.6955 15.27244548121340
FLOCK 4G-18             
1 62680U 25009BZ  26069.17392523  .00014326  00000+0  53832-3 0  9992
2 62680  97.4054 151.4764 0004064 331.3528  28.7487 15.27272564121416
FLOCK 4G-17             
1 62681U 25009CA  26069.47678904  .00014970  00000+0  56018-3 0  9990
2 62681  97.3963 151.5429 0003604 336.6858  23.4217 15.27402565121472
FOREST-3                
1 62682U 25009CB  26069.22863736  .00009075  00000+0  38279-3 0  9992
2 62682  97.3948 150.0610 0004325 348.3947  11.7190 15.23516169121362
IRIS-F2                 
1 62684U 25009CD  26069.16723609  .00008530  00000+0  34459-3 0  9992
2 62684  97.3934 150.1031 0004932 357.1313   2.9896 15.24992416121365
FLOCK 4G-33             
1 62685U 25009CE  26069.48703899  .00009250  00000+0  38249-3 0  9998
2 62685  97.3987 150.5657 0004552 328.7404  31.3562 15.24182807 63765
FOSSASAT-2E18 (TAT-A)   
1 62686U 25009CF  26069.17023530  .00004384  00000+0  20392-3 0  9995
2 62686  97.4017 149.2970 0005153 337.6043  22.4967 15.20462006 63645
BLUEBON                 
1 62688U 25009CH  26069.48846501  .00011139  00000+0  39720-3 0  9993
2 62688  97.4016 152.9846 0001141  42.3997 317.7331 15.29065878 63886
LOGSATS                 
1 62689U 25009CJ  26069.23524045  .00328524  00000+0  23616-2 0  9998
2 62689  97.3907 159.3815 0005675 262.4456  97.6163 15.72644755 64291
TRANSPORTER-12 OBJECT CL
1 62691U 25009CL  26069.17875088  .00045786  00000+0  11875-2 0  9990
2 62691  97.3808 153.1590 0002978 193.9450 166.1714 15.38862538 63938
TRANSPORTER-12 OBJECT CN
1 62693U 25009CN  26069.48337126  .00202672  00000+0  22205-2 0  9990
2 62693  97.4089 159.4074 0003515 236.2359 123.8565 15.62594859121928
LEMUR-2-WILSON          
1 62694U 25009CP  26069.43447183  .00004072  00000+0  38057-3 0  9998
2 62694  97.7070 149.6502 0003607  35.3110 324.8349 14.94687183 62603
CONNECTA IOT-8          
1 62695U 25009CQ  26069.45584049  .00004353  00000+0  42516-3 0  9991
2 62695  97.7123 149.2753 0002268 359.9338   0.1881 14.92898987 62560
LEMUR-2-STAR-FOX        
1 62696U 25009CR  26069.21265211  .00009936  00000+0  78448-3 0  9998
2 62696  97.7038 151.6507 0002542 152.0119 208.1242 15.00899215 62706
IRIDE-MS2-HEO-1         
1 62697U 25009CS  26069.51825904  .00002532  00000+0  24277-3 0  9999
2 62697  97.7092 149.6602 0002063  17.5222 342.6069 14.93998560 62602
ICEYE-X42               
1 62698U 25009CT  26069.20787801  .00003047  00000+0  30732-3 0  9994
2 62698  97.7383 149.2992 0001213 112.7597 247.3750 14.91839585 62532
LEMUR-2-ARIANNA         
1 62699U 25009CU  26069.47418183  .00010577  00000+0  83454-3 0  9993
2 62699  97.6994 151.7713 0004623 146.4473 213.7045 15.00898811 62749
ICEYE-X41               
1 62700U 25009CV  26069.17314282  .00005297  00000+0  47631-3 0  9998
2 62700  97.7111 150.1758 0001907  52.6476 307.4919 14.96077747 62606
FIREFLY-1               
1 62701U 25009CW  26069.49318431  .00002544  00000+0  25123-3 0  9998
2 62701  97.7113 149.6443 0002306 303.6292  56.4707 14.92827238 62590
NORSAT 4                
1 62702U 25009CX  26069.37879406  .00003329  00000+0  31247-3 0  9996
2 62702  97.7093 149.8241 0002338  52.2237 307.9195 14.94644343 62600
CONNECTA IOT-5          
1 62703U 25009CY  26069.11685987  .00001750  00000+0  16733-3 0  9997
2 62703  97.7071 149.5615 0003254  55.1211 305.0315 14.94497691 62572
FIREFLY-2               
1 62704U 25009CZ  26069.46999848  .00001796  00000+0  17876-3 0  9999
2 62704  97.7071 149.4620 0006713  54.0548 306.1294 14.92845562 62594
ICEYE-X45               
1 62705U 25009DA  26069.52399766  .00006457  00000+0  51229-3 0  9999
2 62705  97.8052 155.6202 0000891  71.5940 288.5380 15.00863959 62882
LEMUR-2-ALISIA          
1 62706U 25009DB  26069.53758710  .00009938  00000+0  77887-3 0  9994
2 62706  97.7034 152.4907 0006596 158.0785 202.0723 15.01164785 85356
ICEYE-X44               
1 62707U 25009DC  26069.47606755  .00004116  00000+0  37786-3 0  9996
2 62707  97.7093 150.1943 0002402 101.5252 258.6239 14.95389840 85184
